OBJECT_NAME,OBJECT_ID,EPOCH,MEAN_MOTION,ECCENTRICITY,INCLINATION,RA_OF_ASC_NODE,ARG_OF_PERICENTER,MEAN_ANOMALY,EPHEMERIS_TYPE,CLASSIFICATION_TYPE,NORAD_CAT_ID,ELEMENT_SET_NO,REV_AT_EPOCH,BSTAR,MEAN_MOTION_DOT,MEAN_MOTION_DDOT
DRUMS,2021-102G,2026-06-07T15:55:05.017728,15.20392767,.0013423,97.3297,196.0187,264.8713,95.0990,0,U,49401,999,25213,.27089E-3,.5848E-4,0
KOSEN-1,2021-102H,2026-06-07T15:19:12.526752,15.26704572,.0012325,97.3192,200.9818,236.6098,123.3963,0,U,49402,999,25256,.30456E-3,.7945E-4,0
STARLINK-3151,2021-104A,2026-06-07T23:46:24.840192,16.03110346,.0001483,53.2104,145.9742,88.6514,271.4689,0,U,49408,999,25279,.13829E-2,.864296E-2,.38184E-3
STARLINK-3075,2021-104B,2026-06-07T08:23:13.965216,15.08799156,.0001556,53.1690,186.5865,63.9673,296.1478,0,U,49409,999,25217,.42115E-3,.6414E-4,0
STARLINK-3147,2021-104C,2026-06-07T19:21:42.950304,15.08809372,.0001212,53.1695,184.5398,89.6599,270.4531,0,U,49410,999,25223,.43569E-3,.6647E-4,0
STARLINK-3162,2021-104D,2026-06-07T08:03:21.240864,15.08833314,.0001217,53.1787,176.6484,75.5358,284.5769,0,U,49411,999,25230,-.94352E-5,-.438E-5,0
STARLINK-3157,2021-104F,2026-06-07T07:59:26.619936,15.08828540,.0001357,53.1734,176.6702,83.7330,276.3816,0,U,49413,999,25230,.42229E-4,.384E-5,0
STARLINK-3146,2021-104G,2026-06-07T19:15:01.883232,15.08830264,.0001088,53.1676,184.5513,82.1460,277.9655,0,U,49414,999,25223,.85505E-4,.1073E-4,0
STARLINK-3159,2021-104H,2026-06-07T07:52:45.344640,15.08821177,.0001337,53.1758,176.6821,94.8968,265.2176,0,U,49415,999,25229,.10946E-3,.1454E-4,0
STARLINK-3133,2021-104J,2026-06-07T09:32:07.336896,15.08835422,.0001361,53.1711,186.3666,74.6374,285.4768,0,U,49416,999,25217,.34528E-5,-.233E-5,0
STARLINK-3154,2021-104K,2026-06-07T18:07:25.202784,15.08799648,.0001236,53.1691,174.4133,95.0341,265.0792,0,U,49417,999,25236,.45298E-3,.6921E-4,0
STARLINK-3111,2021-104L,2026-06-07T18:59:08.860128,15.08800831,.0001289,53.1698,184.5977,95.6442,264.4697,0,U,49418,999,25222,.54789E-3,.8433E-4,0
STARLINK-3120,2021-104M,2026-06-07T18:43:14.464128,15.08823927,.0001007,53.1684,184.6495,67.2761,292.8337,0,U,49419,999,25222,.14568E-3,.203E-4,0
STARLINK-3110,2021-104N,2026-06-07T18:53:50.881344,15.08797796,.0001153,53.1686,184.6154,94.4889,265.6234,0,U,49420,999,25222,.49828E-3,.7642E-4,0
STARLINK-3112,2021-104P,2026-06-07T08:33:47.526912,15.08843823,.0000891,53.1760,186.3599,86.9067,273.2027,0,U,49421,999,25216,-.25812E-4,-.699E-5,0
STARLINK-3161,2021-104Q,2026-06-07T08:24:39.661056,15.08834062,.0001416,53.1754,186.8979,59.6712,300.4419,0,U,49422,999,25215,-.88038E-6,-.302E-5,0
STARLINK-3135,2021-104S,2026-06-07T18:37:57.174816,15.08796959,.0001235,53.1690,184.6679,96.4978,263.6154,0,U,49424,999,25222,.43948E-3,.6705E-4,0
STARLINK-3139,2021-104T,2026-06-07T18:18:10.202112,15.08797043,.0001395,53.1704,184.7412,88.9454,271.1697,0,U,49425,999,25223,-.23099E-3,-.3958E-4,0
STARLINK-3114,2021-104U,2026-06-07T18:27:18.379872,15.08853518,.0001102,53.1699,184.7004,86.6244,273.4874,0,U,49426,999,25222,.26439E-3,.3924E-4,0
STARLINK-3131,2021-104V,2026-06-07T08:40:30.385920,15.08832461,.0001847,53.1748,186.5418,89.2719,270.8484,0,U,49427,999,25217,-.20995E-5,-.322E-5,0
STARLINK-3121,2021-104W,2026-06-07T19:20:19.713408,15.08799271,.0001387,53.1702,184.4493,77.7480,282.3667,0,U,49428,999,25224,.43911E-3,.67E-4,0
STARLINK-3138,2021-104Y,2026-06-07T18:44:41.219232,15.08802840,.0001301,53.1701,184.9246,97.6193,262.4947,0,U,49430,999,25223,.43445E-3,.6626E-4,0
STARLINK-3153,2021-104Z,2026-06-07T19:09:47.083104,15.08812594,.0001116,53.1710,184.7470,97.6970,262.4148,0,U,49431,999,25223,.31077E-3,.4658E-4,0
STARLINK-3158,2021-104AA,2026-06-07T07:43:31.494720,15.08842154,.0001209,53.1746,176.7059,90.0653,270.0478,0,U,49432,999,25230,-.15615E-3,-.2772E-4,0
STARLINK-3079,2021-104AB,2026-06-07T17:15:50.384160,15.08800949,.0001296,53.1701,164.9249,101.0313,259.0825,0,U,49433,999,25359,.34358E-3,.5179E-4,0
STARLINK-3134,2021-104AC,2026-06-07T18:18:40.174272,15.09222537,.0001426,53.2152,184.9011,46.4846,313.6264,0,U,49434,999,25331,.41115E-3,.633E-4,0
STARLINK-3117,2021-104AD,2026-06-07T17:22:29.732736,15.08808507,.0001371,53.1686,164.9048,102.8403,257.2741,0,U,49435,999,25250,.64953E-3,.10056E-3,0
STARLINK-3049,2021-104AE,2026-06-07T17:21:06.957216,15.08797316,.0001287,53.1696,164.9076,89.8642,270.2497,0,U,49436,999,25250,.41802E-3,.6364E-4,0
STARLINK-3130,2021-104AF,2026-06-07T17:10:31.359936,15.08781806,.0001336,53.1678,164.9400,98.4512,261.6631,0,U,49437,999,25250,.66189E-3,.10245E-3,0
STARLINK-3044,2021-104AG,2026-06-07T16:55:58.598112,15.08807279,.0001364,53.1689,164.9191,75.3974,284.7169,0,U,49438,999,25250,.31577E-3,.4737E-4,0
STARLINK-3105,2021-104AJ,2026-06-07T16:59:54.547872,15.08811380,.000128,53.1688,164.9731,72.6046,287.5085,0,U,49440,999,25250,.25614E-3,.3788E-4,0
STARLINK-3128,2021-104AK,2026-06-07T18:08:47.060736,15.08835534,.0001257,53.1713,164.7537,124.0897,236.0214,0,U,49441,999,25251,-.18631E-4,-.584E-5,0
STARLINK-3098,2021-104AL,2026-06-07T07:22:17.010912,15.08837968,.0001455,53.1784,166.7784,39.3462,320.7635,0,U,49442,999,25244,-.30404E-4,-.772E-5,0
STARLINK-3136,2021-104AM,2026-06-07T17:18:06.605856,15.10550822,.0002733,53.2147,164.6222,41.5802,318.5399,0,U,49443,999,25251,.80206E-3,.13112E-3,0
STARLINK-3126,2021-104AN,2026-06-07T07:18:21.938976,15.08847641,.000114,53.1746,166.7991,93.1874,266.9248,0,U,49444,999,25244,.50579E-4,.517E-5,0
STARLINK-3122,2021-104AP,2026-06-07T18:03:37.823040,15.08796740,.0001352,53.1702,175.1696,88.9788,271.1358,0,U,49445,999,25236,.38162E-3,.5784E-4,0
STARLINK-3099,2021-104AQ,2026-06-07T07:11:42.154944,15.08832022,.0001129,53.1758,166.8078,62.8296,297.2810,0,U,49446,999,25244,.38502E-4,.325E-5,0
STARLINK-3115,2021-104AR,2026-06-07T20:00:04.000032,15.08820614,.0001327,53.1657,174.4082,87.9587,237.1289,0,U,49447,999,578,.14799E-2,.23331E-3,0
STARLINK-3137,2021-104AT,2026-06-07T15:32:10.872384,15.49014432,.0003446,53.2132,138.8620,44.1483,315.9801,0,U,49449,999,25287,.10504E-2,.57805E-3,0
STARLINK-3127,2021-104AU,2026-06-07T18:44:34.473120,15.08818742,.0001186,53.1702,174.6825,98.0054,262.1072,0,U,49450,999,25263,.25035E-3,.3697E-4,0
STARLINK-3125,2021-104AV,2026-06-07T18:23:22.532064,15.08802710,.0001202,53.1696,174.7105,73.7143,286.3980,0,U,49451,999,25237,.47217E-3,.7227E-4,0
STARLINK-3150,2021-104AW,2026-06-07T18:08:51.233856,15.08828870,.000123,53.1699,174.7965,82.3035,277.8096,0,U,49452,999,25237,.9528E-4,.1228E-4,0
STARLINK-3129,2021-104AX,2026-06-07T18:24:45.440640,15.08832592,.0001243,53.1698,174.7925,92.9669,267.1465,0,U,49453,999,25237,.11575E-3,.1554E-4,0
STARLINK-3160,2021-104AY,2026-06-07T18:18:04.962816,15.08794960,.0001246,53.1709,174.7267,100.4010,259.7122,0,U,49454,999,25237,.54068E-3,.8317E-4,0
STARLINK-3145,2021-104AZ,2026-06-07T08:24:33.352992,15.08830340,.0001195,53.1739,176.5825,84.3241,275.7887,0,U,49455,999,25231,.17064E-4,-.16E-6,0
STARLINK-3124,2021-104BA,2026-06-07T18:14:11.327712,15.08785882,.000116,53.1697,174.7894,91.7181,268.3944,0,U,49456,999,25237,.80288E-3,.12494E-3,0
STARLINK-3132,2021-104BB,2026-06-07T08:20:38.609376,15.08831659,.0000626,53.1722,176.6045,81.0087,279.0975,0,U,49457,999,25231,-.51848E-4,-.1113E-4,0
STARLINK-3156,2021-104BC,2026-06-07T18:02:10.818240,15.08808643,.0001441,53.1696,174.7802,88.1547,271.9610,0,U,49458,999,25237,.25947E-3,.3841E-4,0
STARLINK-3141,2021-104BD,2026-06-07T17:46:16.633920,15.08844164,.000117,53.1677,174.8268,100.5156,259.5967,0,U,49459,999,25237,.89495E-4,.1137E-4,0
STARLINK-3140,2021-104BE,2026-06-07T17:40:58.409760,15.08821703,.0001195,53.1682,174.8437,72.3788,287.7334,0,U,49460,999,25236,.12648E-3,.1725E-4,0
GLOBAL-14,2021-106A,2026-06-07T19:25:47.764704,15.50136888,.0017191,42.0063,346.7937,315.3626,44.5833,0,U,49469,999,25667,.50179E-3,.28961E-3,0
GAOFEN-11 03,2021-107A,2026-06-07T20:36:03.377088,15.23812653,.0009902,97.2087,203.3602,94.2551,265.9818,0,U,49492,999,25321,.26875E-3,.6414E-4,0
GAOFEN-3 02,2021-109A,2026-06-07T21:23:04.286976,14.42215751,.0003508,98.4091,167.1200,38.3967,321.7472,0,U,49495,999,23897,.24629E-4,.38E-6,0
COSMOS 2552,2021-113A,2026-06-04T23:29:15.834336,2.00643508,.64380276,62.8391,208.5252,272.5041,20.6958,0,U,49503,999,3315,0,-.193E-5,0
ZHONGXING-1D,2021-114A,2026-06-07T21:07:09.052896,1.00274449,.000015,0.0401,245.0571,310.7685,147.4254,0,U,49505,999,1672,0,-.321E-5,0
STARLINK-3219,2021-115A,2026-06-07T03:26:31.120800,15.08823842,.0001405,53.1713,107.7320,87.2704,272.8448,0,U,49724,999,24903,.43567E-4,.405E-5,0
STARLINK-3218,2021-115B,2026-06-07T03:58:17.097024,15.08833828,.0001427,53.1714,107.5183,92.6892,267.4263,0,U,49725,999,24904,.1113E-3,.1484E-4,0
STARLINK-3242,2021-115D,2026-06-07T04:28:44.537376,15.08828537,.0001346,53.1705,117.3183,87.8773,272.2372,0,U,49727,999,24890,.69814E-8,-.288E-5,0
STARLINK-3240,2021-115E,2026-06-07T14:06:19.998144,15.08833979,.0000994,53.1702,115.5139,84.6740,275.4365,0,U,49728,999,24896,.15758E-4,-.37E-6,0
STARLINK-3251,2021-115F,2026-06-07T13:55:44.321376,15.08827771,.000129,53.1702,115.4311,81.7257,278.3881,0,U,49729,999,24896,.1923E-4,.18E-6,0
STARLINK-3249,2021-115G,2026-06-07T14:48:48.025728,15.08842327,.0001794,53.1706,115.5722,76.7027,283.4165,0,U,49730,999,24896,-.21303E-3,-.3677E-4,0
STARLINK-3246,2021-115J,2026-06-07T03:51:39.795264,15.08839589,.0001357,53.1721,117.5870,89.8045,270.3101,0,U,49732,999,24889,.98663E-5,-.131E-5,0
STARLINK-3252,2021-115K,2026-06-07T14:27:33.247296,15.08822538,.0001418,53.1703,115.4475,86.9423,273.1731,0,U,49733,999,24896,.20883E-3,.3036E-4,0
STARLINK-3238,2021-115L,2026-06-07T13:19:58.623168,15.08873907,.0001266,53.1695,105.6845,99.0709,261.0426,0,U,49734,999,24910,-.29781E-3,-.5029E-4,0
STARLINK-3113,2021-115M,2026-06-07T14:16:55.954848,15.08834314,.0001373,53.1704,115.3653,89.9876,270.1272,0,U,49735,999,24896,.4363E-4,.406E-5,0
STARLINK-3148,2021-115N,2026-06-07T03:42:22.346784,15.08842693,.0001222,53.1706,107.3462,87.8152,272.2979,0,U,49736,999,24904,-.25985E-3,-.4421E-4,0
